ONEWEB-0196             
1 48218U 21031J   25037.46190402 -.00000361  00000+0 -10090-2 0  9996
2 48218  87.9004  28.2666 0001888  87.8376 272.2970 13.14504770183101
ONEWEB-0183             
1 48219U 21031K   25037.51267432  .00000103  00000+0  24399-3 0  9991
2 48219  87.9006  28.2706 0001737  81.2575 278.8751 13.14502810183204
ONEWEB-0185             
1 48220U 21031L   25037.46272281 -.00000166  00000+0 -48190-3 0  9991
2 48220  87.9004  28.2509 0001969  79.3852 280.7499 13.14502980183128
ONEWEB-0187             
1 48221U 21031M   25037.50870612  .00000168  00000+0  41978-3 0  9996
2 48221  87.9007  28.2774 0001829  82.4167 277.7170 13.14503499183145
ONEWEB-0192             
1 48222U 21031N   25037.56498609  .00000289  00000+0  74503-3 0  9999
2 48222  87.9005  28.2638 0001930  88.3324 271.8026 13.14505115183070
ONEWEB-0219             
1 48223U 21031P   25037.46825091 -.00000040  00000+0 -14289-3 0  9990
2 48223  87.9003  28.2563 0001951  82.0970 278.0381 13.14504225183251
ONEWEB-0202             
1 48224U 21031Q   25037.52534535 -.00000129  00000+0 -38223-3 0  9990
2 48224  87.9005  28.2613 0002664  88.4373 271.7061 13.14505203183251
ONEWEB-0204             
1 48225U 21031R   25037.55944354  .00000164  00000+0  40893-3 0  9991
2 48225  87.9002  28.2666 0001526  81.9643 278.1660 13.14501484183153
